SCD 1                   
1 22490U 93009B   26152.49266252  .00000437  00000+0  68675-4 0  9999
2 22490  24.9707 304.4817 0041833 332.1504  54.2695 14.46112655758840
TECHSAT 1B (GO-32)      
1 25397U 98043D   26154.57772251  .00000069  00000+0  49972-4 0  9993
2 25397  99.0064 146.9934 0000319 213.6137 146.5021 14.24425649449397
SCD 2                   
1 25504U 98060A   26155.25824970  .00000420  00000+0  66370-4 0  9996
2 25504  24.9935 151.8913 0016658 347.4640  88.7459 14.45520563458454
DLR-TUBSAT              
1 25757U 99029B   26155.20427424  .00000136  00000+0  45301-4 0  9995
2 25757  98.6692 150.2812 0014816  33.8590 326.3547 14.52423384431368
TERRA                   
1 25994U 99068A   26155.28503641  .00000491  00000+0  10892-3 0  9995
2 25994  97.9462 205.3422 0000810 263.3577 185.5303 14.61092716407720
MAROC-TUBSAT            
1 27004U 01056D   26155.01675275 -.00000034  00000+0  13966-4 0  9993
2 27004  99.8077 331.6285 0019905 174.4491 304.2897 13.70261883224388
AQUA                    
1 27424U 02022A   26155.26535920  .00000997  00000+0  20809-3 0  9992
2 27424  98.4271 124.2907 0001608  56.5787  47.4575 14.62137848281388
SHIYAN-1 (SY-1)         
1 28220U 04012A   26155.13402434  .00016062  00000+0  49920-3 0  9992
2 28220  97.8690 232.3582 0006620  74.0222 286.1747 15.33414968209090
AURA                    
1 28376U 04026A   26155.25034462  .00000997  00000+0  21168-3 0  9998
2 28376  98.3412 111.5973 0001394  70.6295 289.5056 14.61308914164326
IRS-P5 (CARTOSAT-1)     
1 28649U 05017A   26155.05909539  .00001645  00000+0  17162-3 0  9996
2 28649  97.5314 178.7190 0002679  96.8827 263.2696 14.91014053141869
SINAH 1                 
1 28893U 05043D   26155.27469104  .00000429  00000+0  90863-4 0  9998
2 28893  98.2845 289.5220 0013526 320.7964  39.2258 14.64148784 98636
RESURS-DK 1             
1 29228U 06021A   26155.01277219  .00002370  00000+0  13939-3 0  9999
2 29228  69.9332  13.6552 0006030 303.6136  56.4455 15.13154696100584
ARIRANG-2 (KOMPSAT-2)   
1 29268U 06031A   26155.32464443  .00000475  00000+0  97649-4 0  9990
2 29268  97.8302 340.3937 0015722 111.6262  12.3586 14.64651901 59593
LAPAN-TUBSAT            
1 29709U 07001A   26155.25805128  .00000033  00000+0  10381-4 0  9997
2 29709  98.1338 154.1906 0010954 224.1336 135.9005 14.85935098 49230
HAIYANG-1B              
1 31113U 07010A   26154.58027472  .00000100  00000+0  54012-4 0  9996
2 31113  98.3489 136.9535 0012340 239.3242 120.6726 14.31023350998685
COSMO-SKYMED 1          
1 31598U 07023A   26155.30202439  .00002593  00000+0  23034-3 0  9993
2 31598  97.8863 347.0505 0001554  81.4027 278.7371 14.97043611 27864
TERRASAR-X              
1 31698U 07026A   26152.44920595  .00000799  00000+0  41227-4 0  9990
2 31698  97.4458 160.3801 0001803  98.4388 261.7051 15.19149262 50835
WORLDVIEW-1 (WV-1)      
1 32060U 07041A   26155.22762445  .00007029  00000+0  29203-3 0  9990
2 32060  97.3865 275.1602 0003323  55.2782 304.8768 15.24115578 40902
YAOGAN-3                
1 32289U 07055A   26155.30717049  .00003662  00000+0  37850-3 0  9993
2 32289  97.8155 185.3129 0002040  90.1572 269.9880 14.90732945  3953
COSMO-SKYMED 2          
1 32376U 07059A   26155.26652403  .00000514  00000+0  71095-4 0  9994
2 32376  97.8884 339.0521 0001459  87.6361 272.5019 14.82160735    92
RADARSAT-2              
1 32382U 07061A   26155.30311640 -.00000155  00000+0 -43345-4 0  9994
2 32382  98.5775 162.4195 0001289  83.2627 276.8702 14.29981437964118
CARTOSAT-2A             
1 32783U 08021A   26155.26178209  .00000755  00000+0  10832-3 0  9991
2 32783  97.7635 204.4108 0012390 147.0923 213.1063 14.79218953976896
HUANJING 1A (HJ-1A)     
1 33320U 08041A   26155.28751715  .00001116  00000+0  13997-3 0  9999
2 33320  97.6678 141.6257 0018715 175.9972 184.1396 14.83955765956492
HUANJING 1B (HJ-1B)     
1 33321U 08041B   26155.25077712  .00000769  00000+0  99395-4 0  9995
2 33321  97.6513 144.8008 0035026 224.4456 135.3947 14.83292684956495
GEOEYE 1                
1 33331U 08042A   26155.30902409  .00000630  00000+0  12722-3 0  9998
2 33331  98.1237 229.4032 0005560 100.3179 259.8651 14.64713444948267
THEOS                   
1 33396U 08049A   26155.28680851  .00000077  00000+0  55861-4 0  9994
2 33396  98.5572 212.9884 0001281  81.1032 279.0290 14.20131146916135
COSMO-SKYMED 3          
1 33412U 08054A   26155.26109699  .00003575  00000+0  24354-3 0  9991
2 33412  97.8294  13.6173 0014499 315.8227  44.1841 15.06868246954994
YAOGAN-4                
1 33446U 08061A   26154.87678402  .00001167  00000+0  14933-3 0  9992
2 33446  97.9306  88.4859 0015609 111.7893 248.4984 14.83173206943694
GOSAT (IBUKI)           
1 33492U 09002A   26154.29738274  .00001196  00000+0  21934-3 0  9990
2 33492  98.0881 265.5546 0001658  91.7072 268.4322 14.67539132929420
DEIMOS-1                
1 35681U 09041A   26155.29918488  .00000661  00000+0  10483-3 0  9996
2 35681  97.7391 313.0859 0000729 140.9909 219.1354 14.75223755904986
